[
    {
        "id": "0",
        "image": "https://lh5.googleusercontent.com/p/AF1QipOFgO80kFhp5svBnF4MW-saJ9n2GGfTBzvdaGKy=w408-h544-k-no",
        "name": "Aragon Antoine", 
        "place": "Salies",
        "zip": "81990",
        "hectare": "1"
    },
    {
        "id": "1",
        "image": "",
        "name": "Arnauld Calixte", 
        "place": "Fontaulade",
        "zip": "17800",
        "hectare": "1"
    },
    {
        "id": "2",
        "image": "https://lh5.googleusercontent.com/proxy/_Xmn8klDooF-6FhJa8lJXoO30bS674M-aczTvBh6rii24WI9yFzlZRIJi3k6qtiA4E3B1R0qkrqEebepeUPMCy7yAkftkrGxh4TNPnG2ITpdWws_AVhHDfF7w_n0aIlcyNfh5oYtysErRoK8srIRAXWgk_E-7kY=w411-h240-k-no",
        "name": "Association Semourais", 
        "place": "Marseille",
        "zip": "13008",
        "hectare": "3"
    },
    {
        "id": "3",
        "image": "https://lh5.googleusercontent.com/p/AF1QipMNIU3u9NjnS3Zal8k-kJLJSeD52-bHki5bycmh=w408-h722-k-no",
        "name": "Berlemond Laurence", 
        "place": "Le Val",
        "zip": "83143",
        "hectare": "2"
    },
    {
        "id": "4",
        "image": "https://lh5.googleusercontent.com/p/AF1QipMNIU3u9NjnS3Zal8k-kJLJSeD52-bHki5bycmh=w408-h722-k-no",
        "name": "Boisdron Yvon", 
        "place": "Tourves",
        "zip": "83170",
        "hectare": "1"
    },
    {
        "id": "5",
        "image": "https://lh5.googleusercontent.com/p/AF1QipO1eD1jX3vnvs6RtdO6OKBfOyisoQ9xM-6Uig5j=w506-h240-k-no",
        "name": "Borel Patrick", 
        "place": "Saint Remy de Provence",
        "zip": "13210",
        "hectare": "1"
    },
    {
        "id": "6",
        "image": "",
        "name": "Bossy Gerard", 
        "place": "Pertuis",
        "zip": "13650",
        "hectare": "1"
    },
    {
        "id": "7",
        "image": "",
        "name": "Château Carpe Diem", 
        "place": "Cotignac",
        "zip": "83570",
        "hectare": "1"
    },
    {
        "id": "8",
        "image": "https://lh5.googleusercontent.com/p/AF1QipMNIU3u9NjnS3Zal8k-kJLJSeD52-bHki5bycmh=w408-h722-k-no",
        "name": "Château Lafoux", 
        "place": "Tourves",
        "zip": "83170",
        "hectare": "2"
    },
    {
        "id": "9",
        "image": "https://lh5.googleusercontent.com/p/AF1QipOoCROqrRmZ2ZbsWmicJIrAXw33v8gTOxSqJuEa=w408-h306-k-no",
        "name": "Clément Camille", 
        "place": "Massing Les Semur",
        "zip": "21140",
        "hectare": "1"
    },
    {
        "id": "10",
        "image": "https://lh5.googleusercontent.com/p/AF1QipNS5Z5hP60-9wyDEtIbO8c5LqlXUYspDo-VjR51=w426-h240-k-no",
        "name": "Communauté de communes Rhône Les Provence", 
        "place": "Lapalud",
        "zip": "84840",
        "hectare": "5"
    },
    {
        "id": "11",
        "image": "https://lh5.googleusercontent.com/p/AF1QipN_M-8S4T6Bwnm-B-CXW2SpyjIEJxAjLMsLrhYU=w426-h240-k-no",
        "name": "Denis Vernet", 
        "place": "Montpezat",
        "zip": "30730",
        "hectare": "1"
    },
    {
        "id": "12",
        "image": "https://lh5.googleusercontent.com/p/AF1QipNvuyFMzgJZtWG-JPfWX48gty1VCFwMjrMvaAV9=w408-h612-k-no",
        "name": "Domaine Charvin", 
        "place": "Orange",
        "zip": "84100",
        "hectare": "1"
    },
    {
        "id": "13",
        "image": "https://lh5.googleusercontent.com/p/AF1QipMNIU3u9NjnS3Zal8k-kJLJSeD52-bHki5bycmh=w408-h722-k-no",
        "name": "Domaine de Vaubelle", 
        "place": "Tourves",
        "zip": "83170",
        "hectare": "1"
    },
    {
        "id": "14",
        "image": "https://lh5.googleusercontent.com/p/AF1QipOPf66-4v1Ud8ovZkDDihTEaWDJ9TLdaZERIXLa=w426-h240-k-no",
        "name": "Domaine de Violène", 
        "place": "Vennelles",
        "zip": "13770",
        "hectare": "1"
    },
    {
        "id": "15",
        "image": "https://lh5.googleusercontent.com/p/AF1QipOKgkO0U7Wgx59Eb5TB__2nlvs8Zp8DQdvTvDd5=w408-h372-k-no",
        "name": "Domaine le Cobuage", 
        "place": "Flée",
        "zip": "72500",
        "hectare": "1"
    },
    {
        "id": "16",
        "image": "",
        "name": "Dorothée Singer", 
        "place": "Rhodes",
        "zip": "57810",
        "hectare": "2"
    },
    {
        "id": "17",
        "image": "https://lh5.googleusercontent.com/p/AF1QipPmArCFN_yvii9mOBL04QR1PzoYLbsL_W1WhcsJ=w426-h240-k-no",
        "name": "Eric Gusman", 
        "place": "L'Isle sur la Sorgue",
        "zip": "84800",
        "hectare": "1"
    },
    {
        "id": "18",
        "image": "https://lh5.googleusercontent.com/p/AF1QipN7BWb14EOs1ClScvIIOqK4-gqw33P_iH0C1PX9=w408-h544-k-no",
        "name": "Estelle Roy", 
        "place": "Sollies Pont",
        "zip": "83210",
        "hectare": "1"
    },
    {
        "id": "19",
        "image": "",
        "name": "Françoise Pams", 
        "place": "Aix en Provence",
        "zip": "13080",
        "hectare": "1"
    },
    {
        "id": "20",
        "image": "https://lh5.googleusercontent.com/p/AF1QipPWFavaTQ4PcPRyDbePJ39-0O_TzjpRE2Bp5h0Y=w408-h725-k-no",
        "name": "Gerald O'Beyme", 
        "place": "Rabastens",
        "zip": "81800",
        "hectare": "1"
    },
    {
        "id": "21",
        "image": "https://lh5.googleusercontent.com/p/AF1QipOAojH-Ec9phtuO3tY9yzeY7dnYKfHm6wjatOB3=w465-h240-k-no",
        "name": "Hostellerie Sainte Baume", 
        "place": "Plan d'Aups",
        "zip": "83640",
        "hectare": "2"
    },
    {
        "id": "22",
        "image": "https://lh5.googleusercontent.com/p/AF1QipNjRc95s_9lmdliVCBbCb_Jv-ZlZ7MD7UC2oQIx=w408-h306-k-no",
        "name": "Jean Pierre Estienne d'Orves", 
        "place": "Puyricard",
        "zip": "13540",
        "hectare": "2"
    },
    {
        "id": "23",
        "image": "https://lh5.googleusercontent.com/p/AF1QipP7yh2bZazIa9H1UPKyZ-6t4uGHuYQjednkHyU1=w408-h611-k-no",
        "name": "La Chassagnette", 
        "place": "Arles",
        "zip": "13200",
        "hectare": "4"
    },
    {
        "id": "24",
        "image": "",
        "name": "Les Cultivateurs de Liens", 
        "place": "Linselles",
        "zip": "59126",
        "hectare": "1"
    },
    {
        "id": "25",
        "image": "https://lh5.googleusercontent.com/p/AF1QipP76iGatF9viCO6lfhaP9NPL1XQdgtMlQJpngIG=w533-h240-k-no",
        "name": "Lorene Mouchet", 
        "place": "Magny les Hameaux",
        "zip": "78114",
        "hectare": "1"
    },
    {
        "id": "26",
        "image": "https://lh5.googleusercontent.com/p/AF1QipP-syLrcc_qQ8PdLRvtyGflW_JaaBP7uhxt0xNl=w408-h725-k-no",
        "name": "Mairie de Ceyrat", 
        "place": "Ceyrat",
        "zip": "63122",
        "hectare": "1"
    },
    {
        "id": "27",
        "image": "https://lh5.googleusercontent.com/p/AF1QipPfx2TkLd6TJjmkwSZsLIfOdXnU57sZqyAhNy8K=w408-h306-k-no",
        "name": "Mairie de Le Porge", 
        "place": "Le Porge",
        "zip": "33680",
        "hectare": "1"
    },
    {
        "id": "28",
        "image": "https://lh5.googleusercontent.com/p/AF1QipMwuGPn3xz54fb5g3jKTPIs4k23GqjjSRsZEG42=w408-h272-k-no",
        "name": "Mairie de Montélimar", 
        "place": "Montélimar",
        "zip": "26200",
        "hectare": "1"
    },
    {
        "id": "29",
        "image": "https://streetviewpixels-pa.googleapis.com/v1/thumbnail?panoid=HJ7wOzboRwRTh1PiKplvOg&cb_client=search.gws-prod.gps&w=408&h=240&yaw=31.39482&pitch=0&thumbfov=100",
        "name": "Mairie de Nadillac le Bourg", 
        "place": "Nadillac le Bourg",
        "zip": "46360",
        "hectare": "1"
    },
    {
        "id": "30",
        "image": "https://lh5.googleusercontent.com/p/AF1QipMspJGPdWNS2sqOp8pRjUPsnHHczEGziCUnkReg=w408-h306-k-no",
        "name": "Mairie de Tourcoing", 
        "place": "Tourcoing",
        "zip": "59200",
        "hectare": "1"
    },
    {
        "id": "31",
        "image": "https://lh5.googleusercontent.com/p/AF1QipPc1_SWREDn4uzHuBP7ql44E78tTJWP0FE4CB_H=w408-h525-k-no",
        "name": "Marie de Brangues", 
        "place": "Brangues",
        "zip": "38510",
        "hectare": "1"
    },
    {
        "id": "32",
        "image": "https://streetviewpixels-pa.googleapis.com/v1/thumbnail?panoid=2egJATBqw7asIMEeU59sKA&cb_client=search.gws-prod.gps&w=408&h=240&yaw=0.9493137&pitch=0&thumbfov=100",
        "name": "Mairie de Marseille", 
        "place": "Marseille",
        "zip": "13007",
        "hectare": "1"
    },
    {
        "id": "33",
        "image": "https://lh5.googleusercontent.com/p/AF1QipMLhlfDe4LUGZ7Fq5NdrZyOJrIH9yCaL4Ho9558=w408-h544-k-no",
        "name": "Mas Honorat", 
        "place": "Cavaillon",
        "zip": "84300",
        "hectare": "1"
    },
    {
        "id": "34",
        "image": "https://lh5.googleusercontent.com/p/AF1QipNjRc95s_9lmdliVCBbCb_Jv-ZlZ7MD7UC2oQIx=w408-h306-k-no",
        "name": "Meyer Vincent", 
        "place": "Puyricard",
        "zip": "13540",
        "hectare": "1"
    },
    {
        "id": "35",
        "image": "https://lh5.googleusercontent.com/p/AF1QipOKXghnmBwGFrYl9Y0Y17pGNZhUigboat_tOi7Y=w408-h791-k-no",
        "name": "Oriane Martin", 
        "place": "Bollène",
        "zip": "84500",
        "hectare": "1"
    },
    {
        "id": "36",
        "image": "https://lh5.googleusercontent.com/p/AF1QipNUn_qRVM2LRlsInHqqdRZEjE6Wp1wBTkA6zhfP=w554-h240-k-no",
        "name": "Romain Perpetus", 
        "place": "La Tour d'Aigues",
        "zip": "84240",
        "hectare": "1"
    },
    {
        "id": "37",
        "image": "",
        "name": "Rucher Ecole Police Saint Cyr", 
        "place": "Fondette",
        "zip": "37541",
        "hectare": "2"
    },
    {
        "id": "38",
        "image": "https://lh5.googleusercontent.com/p/AF1QipP6bFb1SaWewrnKfaOCmjgXKThOyLrSEXfxqFyX=w408-h306-k-no",
        "name": "Syndicat Apicole des Flandres", 
        "place": "Morbecque",
        "zip": "59190",
        "hectare": "1"
    },
    {
        "id": "39",
        "image": "https://lh5.googleusercontent.com/p/AF1QipOpTnrcu0jp-Ep7ME7LJc6sewmJ_O-grIkUe2Am=w408-h306-k-no",
        "name": "Syndicat national Apicole", 
        "place": "St Laurent de la Salle",
        "zip": "85410",
        "hectare": "1"
    },
    {
        "id": "40",
        "image": "https://lh5.googleusercontent.com/p/AF1QipMsNSy8WNv6nNcajMTraVZHYc2hDwn_Z0ydLCQ7=w408-h906-k-no",
        "name": "Thomas Seal", 
        "place": "Grambois",
        "zip": "84240",
        "hectare": "1"
    },
    {
        "id": "41",
        "image": "https://lh5.googleusercontent.com/p/AF1QipO1779cIIjh5QShmiHaauWV83_zV3Mm8U0aZ_Cy=w408-h544-k-no",
        "name": "Together For Earth", 
        "place": "Nantes",
        "zip": "92208",
        "hectare": "1"
    },
    {
        "id": "42",
        "image": "https://lh5.googleusercontent.com/p/AF1QipPFrM67-DbfzSp3IGYzxsP-3C3nC6zFP0CleLEe=w408-h271-k-no",
        "name": "Université de Nanterre", 
        "place": "Nanterre",
        "zip": "92200",
        "hectare": "1"
    },
    {
        "id": "43",
        "image": "https://lh5.googleusercontent.com/p/AF1QipMxbezmRKpi6nWLKhN4QCFPe1MxZJrMlSobKWD3=w408-h306-k-no",
        "name": "Ville de Terrasson Lavilledieu", 
        "place": "Terrasson Lavilledieu",
        "zip": "24120",
        "hectare": "1"
    },
    {
        "id": "44",
        "image": "https://lh5.googleusercontent.com/p/AF1QipNT-2YVEV0AmKK5MtY2yMzIEafPxOsHg_eQZ1L0=w408-h725-k-no",
        "name": "Yversenc Pascal", 
        "place": "Couffouleux",
        "zip": "81800",
        "hectare": "1"
    },
    {
        "id": "45",
        "image": "https://www.pagesjaunes.fr/media/agc/e8/88/88/00/00/68/b9/45/b3/67/6225e88888000068b945b367/6225e88888000068b945b368.jpg",
        "name": "580 Chem. de Saint-Georges", 
        "place": "Le Val",
        "zip": "83143",
        "hectare": "1"
    },
    {
        "id": "46",
        "image": "https://www.myprovence.fr/sites/default/files/styles/main/public/poi/5529889/8515858_2020-07-24T0244200000008284884.jpg?itok=XS-QWZ8_",
        "name": "Restaurant la chassagnette, MAS DE LA CHASSAGNETTE, route de Sambuc", 
        "place": "Arles",
        "zip": "13200",
        "hectare": "2"
    },
    {
        "id": "47",
        "image": "https://www.barnes-provence-littoral.com/images/visuels_articles/1424_7S7fb_v.jpg",
        "name": "Brégancon 2925 Rte de Rognes", 
        "place": "Puyricard",
        "zip": "13540",
        "hectare": "2"
    },
    {
        "id": "48",
        "image": "https://static1.vaucluseenprovence.com/obt_img/950x500/4611103_2.jpg",
        "name": "725 chemin de palerme", 
        "place": "L'Isle sur la Sorgue",
        "zip": "84800",
        "hectare": "1"
    },
    {
        "id": "49",
        "image": "https://www.loucalen.com/wp-content/uploads/2022/07/cotignac-hotel-la-falaise-1.jpg",
        "name": "4436 route de Carcès", 
        "place": "Cotignac",
        "zip": "83570",
        "hectare": "1"
    },
    {
        "id": "50",
        "image": "https://images.ladepeche.fr/api/v1/images/view/61f21cab8fe56f47ec659228/large/image.jpg?v=1",
        "name": "Camp de Julio", 
        "place": "Coufouleux",
        "zip": "81800",
        "hectare": "2"
    },
    {
        "id": "51",
        "image": "https://www.la-provence-verte.net/decouvrir/villages/photos-villages/3/01.jpg",
        "name": "47 impasse de la source", 
        "place": "Brignoles",
        "zip": "83170",
        "hectare": "2"
    },
    {
        "id": "52",
        "image": "https://les-distillateurs-culturels.fr/wp-content/uploads/2023/04/%C2%A9-Jas-Hennessy-Co-Alain-Benoit.png",
        "name": "La Bataille", 
        "place": "Saint-Preuil",
        "zip": "16130",
        "hectare": "2"
    }
]